<?xml version="1.0" encoding="UTF-8"?>
<ndm xmlns:xsi="http://www.w3.org/2001/XMLSchema-instance" xsi:noNamespaceSchemaLocation="https://sanaregistry.org/r/ndmxml_unqualified/ndmxml-2.0.0-master-2.0.xsd">
<omm id="CCSDS_OMM_VERS" version="2.0">
<header><CREATION_DATE/><ORIGINATOR/></header><body><segment><metadata><OBJECT_NAME>ONEWEB-0291</OBJECT_NAME><OBJECT_ID>2021-075G</OBJECT_ID><CENTER_NAME>EARTH</CENTER_NAME><REF_FRAME>TEME</REF_FRAME><TIME_SYSTEM>UTC</TIME_SYSTEM><MEAN_ELEMENT_THEORY>SGP4</MEAN_ELEMENT_THEORY></metadata><data><meanElements><EPOCH>2024-09-21T04:06:47.711520</EPOCH><MEAN_MOTION>13.17538732</MEAN_MOTION><ECCENTRICITY>.0001979</ECCENTRICITY><INCLINATION>87.9116</INCLINATION><RA_OF_ASC_NODE>132.1626</RA_OF_ASC_NODE><ARG_OF_PERICENTER>78.9100</ARG_OF_PERICENTER><MEAN_ANOMALY>281.2254</MEAN_ANOMALY></meanElements><tleParameters><EPHEMERIS_TYPE>0</EPHEMERIS_TYPE><CLASSIFICATION_TYPE>U</CLASSIFICATION_TYPE><NORAD_CAT_ID>49081</NORAD_CAT_ID><ELEMENT_SET_NO>999</ELEMENT_SET_NO><REV_AT_EPOCH>15110</REV_AT_EPOCH><BSTAR>-.20308E-1</BSTAR><MEAN_MOTION_DOT>-.7852E-4</MEAN_MOTION_DOT><MEAN_MOTION_DDOT>0</MEAN_MOTION_DDOT></tleParameters></data></segment></body></omm>
<omm id="CCSDS_OMM_VERS" version="2.0">
<header><CREATION_DATE/><ORIGINATOR/></header><body><segment><metadata><OBJECT_NAME>ONEWEB-0293</OBJECT_NAME><OBJECT_ID>2021-075H</OBJECT_ID><CENTER_NAME>EARTH</CENTER_NAME><REF_FRAME>TEME</REF_FRAME><TIME_SYSTEM>UTC</TIME_SYSTEM><MEAN_ELEMENT_THEORY>SGP4</MEAN_ELEMENT_THEORY></metadata><data><meanElements><EPOCH>2024-09-21T01:05:11.524128</EPOCH><MEAN_MOTION>13.17540665</MEAN_MOTION><ECCENTRICITY>.0003292</ECCENTRICITY><INCLINATION>87.9125</INCLINATION><RA_OF_ASC_NODE>132.2064</RA_OF_ASC_NODE><ARG_OF_PERICENTER>80.7091</ARG_OF_PERICENTER><MEAN_ANOMALY>279.4413</MEAN_ANOMALY></meanElements><tleParameters><EPHEMERIS_TYPE>0</EPHEMERIS_TYPE><CLASSIFICATION_TYPE>U</CLASSIFICATION_TYPE><NORAD_CAT_ID>49082</NORAD_CAT_ID><ELEMENT_SET_NO>999</ELEMENT_SET_NO><REV_AT_EPOCH>15110</REV_AT_EPOCH><BSTAR>.17401E-1</BSTAR><MEAN_MOTION_DOT>.6763E-4</MEAN_MOTION_DOT><MEAN_MOTION_DDOT>0</MEAN_MOTION_DDOT></tleParameters></data></segment></body></omm>
<omm id="CCSDS_OMM_VERS" version="2.0">
<header><CREATION_DATE/><ORIGINATOR/></header><body><segment><metadata><OBJECT_NAME>ONEWEB-0294</OBJECT_NAME><OBJECT_ID>2021-075J</OBJECT_ID><CENTER_NAME>EARTH</CENTER_NAME><REF_FRAME>TEME</REF_FRAME><TIME_SYSTEM>UTC</TIME_SYSTEM><MEAN_ELEMENT_THEORY>SGP4</MEAN_ELEMENT_THEORY></metadata><data><meanElements><EPOCH>2024-09-21T02:41:55.842432</EPOCH><MEAN_MOTION>13.12442736</MEAN_MOTION><ECCENTRICITY>.0002367</ECCENTRICITY><INCLINATION>87.8860</INCLINATION><RA_OF_ASC_NODE>116.9560</RA_OF_ASC_NODE><ARG_OF_PERICENTER>78.9186</ARG_OF_PERICENTER><MEAN_ANOMALY>281.2208</MEAN_ANOMALY></meanElements><tleParameters><EPHEMERIS_TYPE>0</EPHEMERIS_TYPE><CLASSIFICATION_TYPE>U</CLASSIFICATION_TYPE><NORAD_CAT_ID>49083</NORAD_CAT_ID><ELEMENT_SET_NO>999</ELEMENT_SET_NO><REV_AT_EPOCH>15239</REV_AT_EPOCH><BSTAR>.11046E-2</BSTAR><MEAN_MOTION_DOT>.41E-5</MEAN_MOTION_DOT><MEAN_MOTION_DDOT>0</MEAN_MOTION_DDOT></tleParameters></data></segment></body></omm>
<omm id="CCSDS_OMM_VERS" version="2.0">
<header><CREATION_DATE/><ORIGINATOR/></header><body><segment><metadata><OBJECT_NAME>ONEWEB-0295</OBJECT_NAME><OBJECT_ID>2021-075K</OBJECT_ID><CENTER_NAME>EARTH</CENTER_NAME><REF_FRAME>TEME</REF_FRAME><TIME_SYSTEM>UTC</TIME_SYSTEM><MEAN_ELEMENT_THEORY>SGP4</MEAN_ELEMENT_THEORY></metadata><data><meanElements><EPOCH>2024-09-21T01:04:01.165152</EPOCH><MEAN_MOTION>13.17581521</MEAN_MOTION><ECCENTRICITY>.0002048</ECCENTRICITY><INCLINATION>87.9129</INCLINATION><RA_OF_ASC_NODE>132.1841</RA_OF_ASC_NODE><ARG_OF_PERICENTER>70.1067</ARG_OF_PERICENTER><MEAN_ANOMALY>290.0285</MEAN_ANOMALY></meanElements><tleParameters><EPHEMERIS_TYPE>0</EPHEMERIS_TYPE><CLASSIFICATION_TYPE>U</CLASSIFICATION_TYPE><NORAD_CAT_ID>49084</NORAD_CAT_ID><ELEMENT_SET_NO>999</ELEMENT_SET_NO><REV_AT_EPOCH>15104</REV_AT_EPOCH><BSTAR>-.17524E-3</BSTAR><MEAN_MOTION_DOT>-.55E-6</MEAN_MOTION_DOT><MEAN_MOTION_DDOT>0</MEAN_MOTION_DDOT></tleParameters></data></segment></body></omm>
<omm id="CCSDS_OMM_VERS" version="2.0">
<header><CREATION_DATE/><ORIGINATOR/></header><body><segment><metadata><OBJECT_NAME>ONEWEB-0296</OBJECT_NAME><OBJECT_ID>2021-075L</OBJECT_ID><CENTER_NAME>EARTH</CENTER_NAME><REF_FRAME>TEME</REF_FRAME><TIME_SYSTEM>UTC</TIME_SYSTEM><MEAN_ELEMENT_THEORY>SGP4</MEAN_ELEMENT_THEORY></metadata><data><meanElements><EPOCH>2024-09-21T02:13:53.012352</EPOCH><MEAN_MOTION>13.12444475</MEAN_MOTION><ECCENTRICITY>.0002271</ECCENTRICITY><INCLINATION>87.8867</INCLINATION><RA_OF_ASC_NODE>116.9627</RA_OF_ASC_NODE><ARG_OF_PERICENTER>68.3184</ARG_OF_PERICENTER><MEAN_ANOMALY>291.8186</MEAN_ANOMALY></meanElements><tleParameters><EPHEMERIS_TYPE>0</EPHEMERIS_TYPE><CLASSIFICATION_TYPE>U</CLASSIFICATION_TYPE><NORAD_CAT_ID>49085</NORAD_CAT_ID><ELEMENT_SET_NO>999</ELEMENT_SET_NO><REV_AT_EPOCH>15239</REV_AT_EPOCH><BSTAR>-.75251E-3</BSTAR><MEAN_MOTION_DOT>-.258E-5</MEAN_MOTION_DOT><MEAN_MOTION_DDOT>0</MEAN_MOTION_DDOT></tleParameters></data></segment></body></omm>
<omm id="CCSDS_OMM_VERS" version="2.0">
<header><CREATION_DATE/><ORIGINATOR/></header><body><segment><metadata><OBJECT_NAME>ONEWEB-0297</OBJECT_NAME><OBJECT_ID>2021-075M</OBJECT_ID><CENTER_NAME>EARTH</CENTER_NAME><REF_FRAME>TEME</REF_FRAME><TIME_SYSTEM>UTC</TIME_SYSTEM><MEAN_ELEMENT_THEORY>SGP4</MEAN_ELEMENT_THEORY></metadata><data><meanElements><EPOCH>2024-09-21T01:08:29.557248</EPOCH><MEAN_MOTION>13.12440865</MEAN_MOTION><ECCENTRICITY>.0001656</ECCENTRICITY><INCLINATION>87.8871</INCLINATION><RA_OF_ASC_NODE>116.9857</RA_OF_ASC_NODE><ARG_OF_PERICENTER>79.6851</ARG_OF_PERICENTER><MEAN_ANOMALY>280.4464</MEAN_ANOMALY></meanElements><tleParameters><EPHEMERIS_TYPE>0</EPHEMERIS_TYPE><CLASSIFICATION_TYPE>U</CLASSIFICATION_TYPE><NORAD_CAT_ID>49086</NORAD_CAT_ID><ELEMENT_SET_NO>999</ELEMENT_SET_NO><REV_AT_EPOCH>15299</REV_AT_EPOCH><BSTAR>.13131E-2</BSTAR><MEAN_MOTION_DOT>.485E-5</MEAN_MOTION_DOT><MEAN_MOTION_DDOT>0</MEAN_MOTION_DDOT></tleParameters></data></segment></body></omm>
<omm id="CCSDS_OMM_VERS" version="2.0">
<header><CREATION_DATE/><ORIGINATOR/></header><body><segment><metadata><OBJECT_NAME>ONEWEB-0298</OBJECT_NAME><OBJECT_ID>2021-075N</OBJECT_ID><CENTER_NAME>EARTH</CENTER_NAME><REF_FRAME>TEME</REF_FRAME><TIME_SYSTEM>UTC</TIME_SYSTEM><MEAN_ELEMENT_THEORY>SGP4</MEAN_ELEMENT_THEORY></metadata><data><meanElements><EPOCH>2024-09-21T01:11:39.251040</EPOCH><MEAN_MOTION>13.17763142</MEAN_MOTION><ECCENTRICITY>.0002011</ECCENTRICITY><INCLINATION>87.9124</INCLINATION><RA_OF_ASC_NODE>132.2028</RA_OF_ASC_NODE><ARG_OF_PERICENTER>76.8287</ARG_OF_PERICENTER><MEAN_ANOMALY>283.3069</MEAN_ANOMALY></meanElements><tleParameters><EPHEMERIS_TYPE>0</EPHEMERIS_TYPE><CLASSIFICATION_TYPE>U</CLASSIFICATION_TYPE><NORAD_CAT_ID>49087</NORAD_CAT_ID><ELEMENT_SET_NO>999</ELEMENT_SET_NO><REV_AT_EPOCH>15110</REV_AT_EPOCH><BSTAR>.11498E-1</BSTAR><MEAN_MOTION_DOT>.4487E-4</MEAN_MOTION_DOT><MEAN_MOTION_DDOT>0</MEAN_MOTION_DDOT></tleParameters></data></segment></body></omm>
<omm id="CCSDS_OMM_VERS" version="2.0">
<header><CREATION_DATE/><ORIGINATOR/></header><body><segment><metadata><OBJECT_NAME>ONEWEB-0299</OBJECT_NAME><OBJECT_ID>2021-075P</OBJECT_ID><CENTER_NAME>EARTH</CENTER_NAME><REF_FRAME>TEME</REF_FRAME><TIME_SYSTEM>UTC</TIME_SYSTEM><MEAN_ELEMENT_THEORY>SGP4</MEAN_ELEMENT_THEORY></metadata><data><meanElements><EPOCH>2024-09-21T01:14:01.047264</EPOCH><MEAN_MOTION>13.17751684</MEAN_MOTION><ECCENTRICITY>.0001531</ECCENTRICITY><INCLINATION>87.9120</INCLINATION><RA_OF_ASC_NODE>132.1659</RA_OF_ASC_NODE><ARG_OF_PERICENTER>69.4532</ARG_OF_PERICENTER><MEAN_ANOMALY>290.6764</MEAN_ANOMALY></meanElements><tleParameters><EPHEMERIS_TYPE>0</EPHEMERIS_TYPE><CLASSIFICATION_TYPE>U</CLASSIFICATION_TYPE><NORAD_CAT_ID>49088</NORAD_CAT_ID><ELEMENT_SET_NO>999</ELEMENT_SET_NO><REV_AT_EPOCH>15106</REV_AT_EPOCH><BSTAR>.12966E-1</BSTAR><MEAN_MOTION_DOT>.5058E-4</MEAN_MOTION_DOT><MEAN_MOTION_DDOT>0</MEAN_MOTION_DDOT></tleParameters></data></segment></body></omm>

</ndm>
