ONEWEB-0291             
1 49081U 21075G   24265.17138555 -.00007852  00000+0 -20308-1 0  9998
2 49081  87.9116 132.1626 0001979  78.9100 281.2254 13.17538732151100
ONEWEB-0293             
1 49082U 21075H   24265.04527227  .00006763  00000+0  17401-1 0  9991
2 49082  87.9125 132.2064 0003292  80.7091 279.4413 13.17540665151102
ONEWEB-0294             
1 49083U 21075J   24265.11245188  .00000410  00000+0  11046-2 0  9996
2 49083  87.8860 116.9560 0002367  78.9186 281.2208 13.12442736152394
ONEWEB-0295             
1 49084U 21075K   24265.04445793 -.00000055  00000+0 -17524-3 0  9998
2 49084  87.9129 132.1841 0002048  70.1067 290.0285 13.17581521151049
ONEWEB-0296             
1 49085U 21075L   24265.09297468 -.00000258  00000+0 -75251-3 0  9994
2 49085  87.8867 116.9627 0002271  68.3184 291.8186 13.12444475152396
ONEWEB-0297             
1 49086U 21075M   24265.04756432  .00000485  00000+0  13131-2 0  9999
2 49086  87.8871 116.9857 0001656  79.6851 280.4464 13.12440865152997
ONEWEB-0298             
1 49087U 21075N   24265.04975985  .00004487  00000+0  11498-1 0  9995
2 49087  87.9124 132.2028 0002011  76.8287 283.3069 13.17763142151105
ONEWEB-0299             
1 49088U 21075P   24265.05140101  .00005058  00000+0  12966-1 0  9997
2 49088  87.9120 132.1659 0001531  69.4532 290.6764 13.17751684151064
